[{"OBJECT_NAME":"STARLINK-6307","OBJECT_ID":"2023-065AC","EPOCH":"2026-03-09T10:33:40.277664","MEAN_MOTION":15.02551277,"ECCENTRICITY":0.00020122,"INCLINATION":43.0046,"RA_OF_ASC_NODE":198.9845,"ARG_OF_PERICENTER":288.6025,"MEAN_ANOMALY":71.4598,"EPHEMERIS_TYPE":0,"CLASSIFICATION_TYPE":"U","NORAD_CAT_ID":56529,"ELEMENT_SET_NO":999,"REV_AT_EPOCH":15673,"BSTAR":1.0166752e-5,"MEAN_MOTION_DOT":-6.6e-7,"MEAN_MOTION_DDOT":0},{"OBJECT_NAME":"PROSPERO (BLACK ARROW)","OBJECT_ID":"1971-093A","EPOCH":"2026-03-09T22:08:42.448992","MEAN_MOTION":14.01391999,"ECCENTRICITY":0.05025266,"INCLINATION":82.0414,"RA_OF_ASC_NODE":17.9371,"ARG_OF_PERICENTER":151.6068,"MEAN_ANOMALY":211.3501,"EPHEMERIS_TYPE":0,"CLASSIFICATION_TYPE":"U","NORAD_CAT_ID":5580,"ELEMENT_SET_NO":999,"REV_AT_EPOCH":73462,"BSTAR":0.00028939621,"MEAN_MOTION_DOT":1.372e-5,"MEAN_MOTION_DDOT":0}]
